OBJECT_NAME,OBJECT_ID,EPOCH,MEAN_MOTION,ECCENTRICITY,INCLINATION,RA_OF_ASC_NODE,ARG_OF_PERICENTER,MEAN_ANOMALY,EPHEMERIS_TYPE,CLASSIFICATION_TYPE,NORAD_CAT_ID,ELEMENT_SET_NO,REV_AT_EPOCH,BSTAR,MEAN_MOTION_DOT,MEAN_MOTION_DDOT
PAKSAT-1R,2011-042A,2026-07-09T18:57:57.890304,1.00265543,.0003242,0.7448,84.4006,348.1074,177.7661,0,U,37779,999,5470,0,.165E-5,0
SES-2,2011-049A,2026-07-09T13:14:19.015008,1.00271569,.0002759,0.1128,91.9179,17.5614,289.5899,0,U,37809,999,5418,0,-.183E-5,0
ARABSAT-5C,2011-049B,2026-07-09T18:52:45.880896,1.00269069,.000343,0.0470,6.6857,117.6620,106.5649,0,U,37810,999,5426,0,.135E-5,0
EUTELSAT 7 WEST A,2011-051A,2026-07-09T15:19:45.362208,1.00270487,.0004592,0.0671,334.4976,149.8839,25.8181,0,U,37816,999,5410,0,-.48E-6,0
QUETZSAT 1,2011-054A,2026-07-09T13:17:11.238720,1.00269020,.0002495,0.0132,336.5570,135.4053,297.8199,0,U,37826,999,5009,0,-.228E-5,0
INTELSAT 18 (IS-18),2011-056A,2026-07-09T17:55:44.845248,1.00269336,.0001491,0.0318,274.4085,211.4901,250.7095,0,U,37834,999,5403,0,.65E-6,0
EUTELSAT 16A,2011-057A,2026-07-09T18:51:38.488896,1.00271747,.0005829,0.0375,3.0783,101.9804,121.5481,0,U,37836,999,756,0,.116E-5,0
VIASAT-1,2011-059A,2026-07-09T14:48:40.635936,1.00268112,.0001967,0.0247,27.7202,77.3090,289.5836,0,U,37843,999,4754,0,0,0
ASIASAT 7,2011-069A,2026-07-09T19:17:12.049152,1.00267299,.0000997,0.0165,20.7510,75.0845,226.6694,0,U,37933,999,4508,0,-.321E-5,0
BEIDOU-2 IGSO-5,2011-073A,2026-07-02T17:30:18.330912,1.00270596,.01145273,47.6496,271.3544,222.0502,141.5350,0,U,37948,999,5329,0,-.128E-5,0
LUCH-5A,2011-074B,2026-07-09T11:49:28.309728,1.00272597,.0002569,8.8073,73.4794,56.6691,141.6112,0,U,37951,999,5327,0,-.44E-6,0
NIGCOMSAT 1R,2011-077A,2026-07-09T18:59:12.768864,1.00274285,.0002359,0.0305,156.8435,189.2009,268.9934,0,U,38014,999,5318,0,.157E-5,0
WGS F4 (USA 233),2012-003A,2026-07-09T19:12:20.016288,1.00271183,.0001051,0.0252,33.9367,124.5547,145.7294,0,U,38070,999,4437,0,0,0
SES-4,2012-007A,2026-07-08T15:18:22.654944,1.00269814,.00024338,0.0204,53.7161,52.7745,27.6850,0,U,38087,999,5244,0,-.154E-5,0
BEIDOU-2 G5,2012-008A,2026-07-09T20:46:28.820640,1.00269077,.0007378,3.6267,69.5566,271.5030,317.0597,0,U,38091,999,5259,0,.66E-6,0
MUOS-1,2012-009A,2026-07-09T14:53:17.897856,1.00272166,.005723,5.5207,47.1273,3.1662,0.6280,0,U,38093,999,5267,0,-.12E-5,0
INTELSAT 22 (IS-22),2012-011A,2026-07-09T18:22:38.406720,1.00271065,.0001882,0.0336,63.6144,67.4010,144.4268,0,U,38098,999,741,0,0,0
APSTAR-7,2012-013A,2026-07-09T16:38:38.626368,1.00270518,.0002951,0.0235,56.7524,67.8562,129.1883,0,U,38107,999,5203,0,0,0
YAHSAT 1B,2012-016A,2026-07-09T19:00:42.625728,1.00269134,.0003634,0.0911,88.8518,46.5546,125.0852,0,U,38245,999,4583,0,.139E-5,0
AEHF-2 (USA 235),2012-019A,2026-07-09T07:19:38.686368,1.00272672,.00022058,6.7003,57.3238,50.1417,273.1827,0,U,38254,999,720,0,-.127E-5,0
JCSAT-13,2012-023A,2026-07-09T19:47:38.464800,1.00270519,.0002871,0.0161,29.2724,97.6676,221.7346,0,U,38331,999,5176,0,-.344E-5,0
VINASAT-2,2012-023B,2026-07-09T19:24:41.330880,1.00269966,.0002201,0.0206,327.7134,148.1017,234.9427,0,U,38332,999,4688,0,-.317E-5,0
NIMIQ 6,2012-026A,2026-07-09T15:55:53.387040,1.00271712,.0002606,0.0178,312.2435,158.5015,324.7175,0,U,38342,999,5063,0,-.161E-5,0
ZHONGXING-2A,2012-028A,2026-07-09T00:25:58.209312,1.00273625,.00016456,1.5074,83.6240,26.9111,281.1678,0,U,38352,999,5151,0,-.28E-5,0
INTELSAT 19 (IS-19),2012-030A,2026-07-09T17:51:45.226944,1.00271574,.0003122,0.0162,25.1612,95.8888,240.5671,0,U,38356,999,5067,0,-.44E-6,0
ECHOSTAR 17,2012-035A,2026-07-09T15:42:14.646816,1.00270629,.0001947,0.0022,104.3144,2.1541,309.5846,0,U,38551,999,5128,0,-.63E-6,0
METEOSAT-10 (MSG-3),2012-035B,2026-07-09T18:47:08.920032,1.00269916,.0001145,4.7222,60.9041,19.1415,129.5271,0,U,38552,999,5108,0,.1E-7,0
SES-5,2012-036A,2026-07-09T15:23:15.027360,1.00271603,.0001974,0.0440,320.3672,153.2887,49.7112,0,U,38652,999,4468,0,.46E-6,0
INTELSAT 20 (IS-20),2012-043A,2026-07-09T13:58:42.110112,1.00272708,.0002081,0.0110,8.3377,357.1790,200.1558,0,U,38740,999,5097,0,-.12E-6,0
HYLAS 2,2012-043B,2026-07-09T13:18:11.144160,1.00272584,.000238,2.4819,80.7955,52.1911,281.4703,0,U,38741,999,5099,0,-.247E-5,0
INTELSAT 21 (IS-21),2012-045A,2026-07-09T18:30:34.005888,1.00270362,.0001718,0.0255,30.2344,102.7819,14.3242,0,U,38749,999,5075,0,0,0
ASTRA 2F,2012-051A,2026-07-09T17:12:29.026368,1.00274884,.0002823,0.0575,245.3815,298.7686,29.8674,0,U,38778,999,4136,0,.163E-5,0
