PAKSAT-1R               
1 37779U 11042A   26190.79025336  .00000165  00000+0  00000+0 0  9994
2 37779   0.7448  84.4006 0003242 348.1074 177.7661  1.00265543 54705
SES-2                   
1 37809U 11049A   26190.55160897 -.00000183  00000+0  00000+0 0  9992
2 37809   0.1128  91.9179 0002759  17.5614 289.5899  1.00271569 54183
ARABSAT-5C              
1 37810U 11049B   26190.78664214  .00000135  00000+0  00000+0 0  9997
2 37810   0.0470   6.6857 0003430 117.6620 106.5649  1.00269069 54268
EUTELSAT 7 WEST A       
1 37816U 11051A   26190.63871947 -.00000048  00000+0  00000+0 0  9997
2 37816   0.0671 334.4976 0004592 149.8839  25.8181  1.00270487 54103
QUETZSAT 1              
1 37826U 11054A   26190.55360230 -.00000228  00000+0  00000+0 0  9990
2 37826   0.0132 336.5570 0002495 135.4053 297.8199  1.00269020 50093
INTELSAT 18 (IS-18)     
1 37834U 11056A   26190.74704682  .00000065  00000+0  00000+0 0  9993
2 37834   0.0318 274.4085 0001491 211.4901 250.7095  1.00269336 54032
EUTELSAT 16A            
1 37836U 11057A   26190.78586214  .00000116  00000+0  00000+0 0  9996
2 37836   0.0375   3.0783 0005829 101.9804 121.5481  1.00271747  7561
VIASAT-1                
1 37843U 11059A   26190.61713699  .00000000  00000+0  00000+0 0  9999
2 37843   0.0247  27.7202 0001967  77.3090 289.5836  1.00268112 47541
ASIASAT 7               
1 37933U 11069A   26190.80361168 -.00000321  00000+0  00000+0 0  9998
2 37933   0.0165  20.7510 0000997  75.0845 226.6694  1.00267299 45086
BEIDOU-2 IGSO-5         
1 37948U 11073A   26183.72937883 -.00000128  00000+0  00000+0 0  9990
2 37948  47.6496 271.3544 0114527 222.0502 141.5350  1.00270596 53296
LUCH-5A                 
1 37951U 11074B   26190.49268877 -.00000044  00000+0  00000+0 0  9994
2 37951   8.8073  73.4794 0002569  56.6691 141.6112  1.00272597 53278
NIGCOMSAT 1R            
1 38014U 11077A   26190.79112001  .00000157  00000+0  00000+0 0  9992
2 38014   0.0305 156.8435 0002359 189.2009 268.9934  1.00274285 53183
WGS F4 (USA 233)        
1 38070U 12003A   26190.80023167  .00000000  00000+0  00000+0 0  9997
2 38070   0.0252  33.9367 0001051 124.5547 145.7294  1.00271183 44378
SES-4                   
1 38087U 12007A   26189.63776221 -.00000154  00000+0  00000+0 0  9995
2 38087   0.0204  53.7161 0002433  52.7745  27.6850  1.00269814 52443
BEIDOU-2 G5             
1 38091U 12008A   26190.86561135  .00000066  00000+0  00000+0 0  9995
2 38091   3.6267  69.5566 0007378 271.5030 317.0597  1.00269077 52592
MUOS-1                  
1 38093U 12009A   26190.62034604 -.00000120  00000+0  00000+0 0  9990
2 38093   5.5207  47.1273 0057230   3.1662   0.6280  1.00272166 52674
INTELSAT 22 (IS-22)     
1 38098U 12011A   26190.76572230  .00000000  00000+0  00000+0 0  9991
2 38098   0.0336  63.6144 0001882  67.4010 144.4268  1.00271065  7416
APSTAR-7                
1 38107U 12013A   26190.69350262  .00000000  00000+0  00000+0 0  9995
2 38107   0.0235  56.7524 0002951  67.8562 129.1883  1.00270518 52037
YAHSAT 1B               
1 38245U 12016A   26190.79216002  .00000139  00000+0  00000+0 0  9998
2 38245   0.0911  88.8518 0003634  46.5546 125.0852  1.00269134 45838
AEHF-2 (USA 235)        
1 38254U 12019A   26190.30530887 -.00000127  00000+0  00000+0 0  9996
2 38254   6.7003  57.3238 0002205  50.1417 273.1827  1.00272672  7201
JCSAT-13                
1 38331U 12023A   26190.82475075 -.00000344  00000+0  00000+0 0  9992
2 38331   0.0161  29.2724 0002871  97.6676 221.7346  1.00270519 51762
VINASAT-2               
1 38332U 12023B   26190.80881170 -.00000317  00000+0  00000+0 0  9998
2 38332   0.0206 327.7134 0002201 148.1017 234.9427  1.00269966 46889
NIMIQ 6                 
1 38342U 12026A   26190.66381235 -.00000161  00000+0  00000+0 0  9990
2 38342   0.0178 312.2435 0002606 158.5015 324.7175  1.00271712 50631
ZHONGXING-2A            
1 38352U 12028A   26190.01803483 -.00000280  00000+0  00000+0 0  9998
2 38352   1.5074  83.6240 0001645  26.9111 281.1678  1.00273625 51510
INTELSAT 19 (IS-19)     
1 38356U 12030A   26190.74427346 -.00000044  00000+0  00000+0 0  9993
2 38356   0.0162  25.1612 0003122  95.8888 240.5671  1.00271574 50677
ECHOSTAR 17             
1 38551U 12035A   26190.65433619 -.00000063  00000+0  00000+0 0  9996
2 38551   0.0022 104.3144 0001947   2.1541 309.5846  1.00270629 51287
METEOSAT-10 (MSG-3)     
1 38552U 12035B   26190.78274213  .00000001  00000+0  00000+0 0  9995
2 38552   4.7222  60.9041 0001145  19.1415 129.5271  1.00269916 51089
SES-5                   
1 38652U 12036A   26190.64114615  .00000046  00000+0  00000+0 0  9990
2 38652   0.0440 320.3672 0001974 153.2887  49.7112  1.00271603 44688
INTELSAT 20 (IS-20)     
1 38740U 12043A   26190.58243183 -.00000012  00000+0  00000+0 0  9996
2 38740   0.0110   8.3377 0002081 357.1790 200.1558  1.00272708 50976
HYLAS 2                 
1 38741U 12043B   26190.55429565 -.00000247  00000+0  00000+0 0  9994
2 38741   2.4819  80.7955 0002380  52.1911 281.4703  1.00272584 50992
INTELSAT 21 (IS-21)     
1 38749U 12045A   26190.77122692  .00000000  00000+0  00000+0 0  9995
2 38749   0.0255  30.2344 0001718 102.7819  14.3242  1.00270362 50750
ASTRA 2F                
1 38778U 12051A   26190.71700262  .00000163  00000+0  00000+0 0  9993
2 38778   0.0575 245.3815 0002823 298.7686  29.8674  1.00274884 41365
